{
"type": "FeatureCollection",
"name": "medical_ER_UC_APPROVED",
"crs": { "type": "name", "properties": { "name": "urn:ogc:def:crs:OGC:1.3:CRS84" } },
"features": [
{ "type": "Feature", "properties": { "approve": true, "bucket": "ER_Hospital_UC", "name": "Concentra Urgent Care", "lat": 35.136128, "lon": -80.937025, "dup_group": 16, "emergency_tag": true, "non_acute_name": false, "non_acute_tag": false, "tags": { "healthcare": "urgent_care", "name": "Concentra Urgent Care" }, "notes": null }, "geometry": { "type": "Point", "coordinates": [ -80.937025, 35.136128 ] } },
{ "type": "Feature", "properties": { "approve": true, "bucket": "ER_Hospital_UC", "name": "Novant Health & Vascular Institute - Elizabeth (Cardio)", "lat": 35.211546, "lon": -80.826688, "dup_group": 28, "emergency_tag": true, "non_acute_name": false, "non_acute_tag": false, "tags": { "addr:city": "Charlotte", "addr:housenumber": "125", "addr:postcode": "28204", "addr:state": "NC", "addr:street": "Queens Road", "addr:unit": "Suite 200", "amenity": "hospital", "healthcare": "hospital", "healthcare:speciality": "cardiology", "name": "Novant Health & Vascular Institute - Elizabeth (Cardio)", "not:brand:wikidata": "Q110282081", "operator": "Novant Health", "operator:wikidata": "Q14956815" }, "notes": null }, "geometry": { "type": "Point", "coordinates": [ -80.826688, 35.211546 ] } },
{ "type": "Feature", "properties": { "approve": true, "bucket": "ER_Hospital_UC", "name": "Carolinas Medical Center - Center For Mental Health", "lat": 35.192004, "lon": -80.80394, "dup_group": 30, "emergency_tag": true, "non_acute_name": false, "non_acute_tag": false, "tags": { "amenity": "hospital", "beds": "1211", "name": "Carolinas Medical Center - Center For Mental Health", "phone": "+1 704 355 2000" }, "notes": null }, "geometry": { "type": "Point", "coordinates": [ -80.80394, 35.192004 ] } },
{ "type": "Feature", "properties": { "approve": true, "bucket": "ER_Hospital_UC", "name": "Palmetto Tower", "lat": 35.092077, "lon": -80.873088, "dup_group": 42, "emergency_tag": true, "non_acute_name": false, "non_acute_tag": false, "tags": { "amenity": "hospital", "emergency": "no", "healthcare": "hospital", "healthcare:speciality": "intensive", "name": "Palmetto Tower", "operator": "Atrium Health", "operator:wikidata": "Q5044932" }, "notes": null }, "geometry": { "type": "Point", "coordinates": [ -80.873088, 35.092077 ] } },
{ "type": "Feature", "properties": { "approve": true, "bucket": "ER_Hospital_UC", "name": "One Health Family Medicine Urgent Care", "lat": 35.25154, "lon": -80.808112, "dup_group": 51, "emergency_tag": true, "non_acute_name": false, "non_acute_tag": false, "tags": { "amenity": "hospital", "healthcare": "hospital", "name": "One Health Family Medicine Urgent Care", "operator": "Atrium Health", "operator:type": "private", "operator:wikidata": "Q5044932" }, "notes": null }, "geometry": { "type": "Point", "coordinates": [ -80.808112, 35.25154 ] } },
{ "type": "Feature", "properties": { "approve": true, "bucket": "ER_Hospital_UC", "name": "Atrium Health Urgent Care", "lat": 35.208806, "lon": -80.859785, "dup_group": 54, "emergency_tag": true, "non_acute_name": false, "non_acute_tag": false, "tags": { "amenity": "hospital", "healthcare": "hospital", "name": "Atrium Health Urgent Care", "operator": "Atrium Health", "operator:type": "private", "operator:wikidata": "Q5044932" }, "notes": null }, "geometry": { "type": "Point", "coordinates": [ -80.859785, 35.208806 ] } },
{ "type": "Feature", "properties": { "approve": true, "bucket": "ER_Hospital_UC", "name": "Atrium Health Kannapolis", "lat": 35.500767, "lon": -80.568086, "dup_group": 59, "emergency_tag": true, "non_acute_name": false, "non_acute_tag": false, "tags": { "addr:city": "Kannapolis", "addr:housenumber": "2711", "addr:postcode": "28083", "addr:street": "Lane Street", "amenity": "hospital", "emergency": "yes", "healthcare": "hospital", "name": "Atrium Health Kannapolis", "opening_hours": "24/7", "operator": "Atrium Health", "phone": "+1 704 403 3000", "website": "https://www.carolinashealthcare.org/locations/carolinas-healthcare-system-kannapolis" }, "notes": null }, "geometry": { "type": "Point", "coordinates": [ -80.568086, 35.500767 ] } },
{ "type": "Feature", "properties": { "approve": true, "bucket": "ER_Hospital_UC", "name": "Atrium Health Steele Creek", "lat": 35.099207, "lon": -80.992243, "dup_group": 60, "emergency_tag": true, "non_acute_name": false, "non_acute_tag": false, "tags": { "building": "hospital", "emergency": "yes", "name": "Atrium Health Steele Creek" }, "notes": null }, "geometry": { "type": "Point", "coordinates": [ -80.992243, 35.099207 ] } },
{ "type": "Feature", "properties": { "approve": true, "bucket": "ER_Hospital_UC", "name": "Carolinas Medical Center", "lat": 35.203338, "lon": -80.83883, "dup_group": 61, "emergency_tag": true, "non_acute_name": false, "non_acute_tag": false, "tags": { "addr:city": "Charlotte", "addr:housenumber": "1000", "addr:postcode": "28203", "addr:state": "NC", "addr:street": "Blythe Blvd", "amenity": "hospital", "emergency": "yes", "healthcare": "hospital", "name": "Carolinas Medical Center", "opening_hours": "24/7", "phone": "+1 704 355 2000", "website": "http://www.carolinashealthcare.org/locations/carolinas-medical-center", "wikidata": "Q17514683", "wikipedia": "en:Carolinas Medical Center" }, "notes": null }, "geometry": { "type": "Point", "coordinates": [ -80.83883, 35.203338 ] } },
{ "type": "Feature", "properties": { "approve": true, "bucket": "ER_Hospital_UC", "name": "Atrium Health Biddle Point", "lat": 35.241879, "lon": -80.859392, "dup_group": 67, "emergency_tag": true, "non_acute_name": false, "non_acute_tag": false, "tags": { "addr:city": "Charlotte", "addr:housenumber": "1801", "addr:postcode": "28216", "addr:state": "NC", "addr:street": "Rozzelles Ferry Road", "amenity": "hospital", "building": "yes", "healthcare": "hospital", "height": "36", "name": "Atrium Health Biddle Point", "operator": "Atrium Health", "operator:wikidata": "Q5044932" }, "notes": null }, "geometry": { "type": "Point", "coordinates": [ -80.859392, 35.241879 ] } },
{ "type": "Feature", "properties": { "approve": true, "bucket": "ER_Hospital_UC", "name": "Atrium Health Harrisburg Emergency Department", "lat": 35.285339, "lon": -80.666779, "dup_group": 74, "emergency_tag": true, "non_acute_name": false, "non_acute_tag": false, "tags": { "addr:city": "Harrisburg", "addr:housenumber": "9592", "addr:postcode": "28215", "addr:state": "NC", "addr:street": "Rocky River Road", "amenity": "hospital", "emergency": "yes", "healthcare": "hospital", "name": "Atrium Health Harrisburg Emergency Department", "opening_hours": "24/7", "operator": "Atrium Health", "operator:type": "private", "operator:wikidata": "Q5044932", "phone": "+1 704 403 9400", "website": "https://atriumhealth.org/locations/detail/atrium-health-harrisburg-emergency-department" }, "notes": null }, "geometry": { "type": "Point", "coordinates": [ -80.666779, 35.285339 ] } },
{ "type": "Feature", "properties": { "approve": true, "bucket": "ER_Hospital_UC", "name": "Duke Health Lake Norman Hospital", "lat": 35.549267, "lon": -80.853589, "dup_group": 75, "emergency_tag": true, "non_acute_name": false, "non_acute_tag": false, "tags": { "addr:city": "Mooresville", "addr:housenumber": "171", "addr:postcode": "28117", "addr:street": "Fairview Road", "amenity": "hospital", "check_date": "2025-04-03", "emergency": "yes", "healthcare": "hospital", "name": "Duke Health Lake Norman Hospital", "operator": "Duke Health", "phone": "+1 704 660 4000", "website": "https://www.dukehealth.org/hospitals/duke-health-lake-norman-hospital" }, "notes": null }, "geometry": { "type": "Point", "coordinates": [ -80.853589, 35.549267 ] } },
{ "type": "Feature", "properties": { "approve": true, "bucket": "ER_Hospital_UC", "name": "Carolinas Healthcare System Lincoln", "lat": 35.490064, "lon": -81.20308, "dup_group": 76, "emergency_tag": true, "non_acute_name": false, "non_acute_tag": false, "tags": { "addr:city": "Lincolnton", "addr:housenumber": "433", "addr:postcode": "28092", "addr:street": "McAlister Road", "amenity": "hospital", "emergency": "yes", "healthcare": "hospital", "name": "Carolinas Healthcare System Lincoln", "operator": "Atrium Health", "operator:wikidata": "Q5044932", "phone": "+1 980 212 2000", "website": "http://www.carolinashealthcare.org/locations/carolinas-healthcare-system-lincoln" }, "notes": null }, "geometry": { "type": "Point", "coordinates": [ -81.20308, 35.490064 ] } },
{ "type": "Feature", "properties": { "approve": true, "bucket": "ER_Hospital_UC", "name": "CaroMont Regional Medical Center", "lat": 35.272034, "lon": -81.139427, "dup_group": 77, "emergency_tag": true, "non_acute_name": false, "non_acute_tag": false, "tags": { "addr:city": "Gastonia", "addr:housenumber": "2525", "addr:postcode": "28054", "addr:state": "NC", "addr:street": "Court Drive", "amenity": "hospital", "emergency": "yes", "gnis:feature_id": "1001644", "healthcare": "hospital", "name": "CaroMont Regional Medical Center", "old_name": "Gaston Memorial Hospital", "opening_hours": "24/7", "phone": "+1 704 834 2000", "website": "https://www.caromonthealth.org/", "wikidata": "Q5526748", "wikipedia": "en:CaroMont Regional Medical Center" }, "notes": null }, "geometry": { "type": "Point", "coordinates": [ -81.139427, 35.272034 ] } },
{ "type": "Feature", "properties": { "approve": true, "bucket": "ER_Hospital_UC", "name": "Carolinas ContinueCARE Hospital", "lat": 35.094395, "lon": -80.87315, "dup_group": 78, "emergency_tag": true, "non_acute_name": false, "non_acute_tag": false, "tags": { "addr:city": "Charlotte", "addr:housenumber": "10648", "addr:postcode": "28210", "addr:street": "Park Road", "amenity": "hospital", "beds": "40", "emergency": "no", "healthcare": "hospital", "name": "Carolinas ContinueCARE Hospital", "old_name": "Carolinas Specialty Hospital", "phone": "+1 704 667 8050", "website": "https://continuecare.org/pineville/" }, "notes": null }, "geometry": { "type": "Point", "coordinates": [ -80.87315, 35.094395 ] } },
{ "type": "Feature", "properties": { "approve": true, "bucket": "ER_Hospital_UC", "name": "Atrium Health Pineville", "lat": 35.092055, "lon": -80.872039, "dup_group": 79, "emergency_tag": true, "non_acute_name": false, "non_acute_tag": false, "tags": { "addr:city": "Charlotte", "addr:housenumber": "10628", "addr:postcode": "28210", "addr:state": "NC", "addr:street": "Park Road", "amenity": "hospital", "beds": "206", "emergency": "yes", "gnis:feature_id": "1984463", "healthcare": "hospital", "name": "Atrium Health Pineville", "old_name": "Carolinas Medical Center - Pineville", "opening_hours": "24/7", "operator": "Atrium Health", "operator:type": "private_non_profit", "operator:wikidata": "Q5044932", "phone": "+1 704 667 1000", "website": "http://www.carolinashealthcare.org/locations/carolinas-healthcare-system-pineville", "wikidata": "Q17986277", "wikipedia": "en:Atrium Health Pineville" }, "notes": null }, "geometry": { "type": "Point", "coordinates": [ -80.872039, 35.092055 ] } },
{ "type": "Feature", "properties": { "approve": true, "bucket": "ER_Hospital_UC", "name": "Matthews Medical Center", "lat": 35.119562, "lon": -80.714603, "dup_group": 80, "emergency_tag": true, "non_acute_name": false, "non_acute_tag": false, "tags": { "addr:city": "Matthews", "addr:housenumber": "1500", "addr:postcode": "28105", "addr:state": "NC", "addr:street": "Matthews Township Parkway", "amenity": "hospital", "emergency": "yes", "gnis:feature_id": "1984467", "healthcare": "hospital", "name": "Matthews Medical Center", "old_name": "Presbyterian Hospital Matthews", "opening_hours": "24/7", "phone": "+1 704 384 6500", "website": "https://www.novanthealth.org/matthews-medical-center.aspx" }, "notes": null }, "geometry": { "type": "Point", "coordinates": [ -80.714603, 35.119562 ] } },
{ "type": "Feature", "properties": { "approve": true, "bucket": "ER_Hospital_UC", "name": "Carolinas HealthCare System NorthEast", "lat": 35.437499, "lon": -80.601984, "dup_group": 81, "emergency_tag": true, "non_acute_name": false, "non_acute_tag": false, "tags": { "addr:city": "Concord", "addr:housenumber": "920", "addr:postcode": "28025", "addr:state": "NC", "addr:street": "Church Street North", "amenity": "hospital", "beds": "457", "emergency": "yes", "gnis:feature_id": "1001145", "healthcare": "hospital", "name": "Carolinas HealthCare System NorthEast", "old_name": "Carolinas Medical Center - Northeast Medical Center", "opening_hours": "24/7", "phone": "+1 704 403 3000", "website": "http://www.carolinashealthcare.org/locations/carolinas-healthcare-system-northeast", "wikidata": "Q17514694", "wikipedia": "en:Atrium Health Cabarrus" }, "notes": null }, "geometry": { "type": "Point", "coordinates": [ -80.601984, 35.437499 ] } },
{ "type": "Feature", "properties": { "approve": true, "bucket": "ER_Hospital_UC", "name": "Charlotte Orthopedic Hospital", "lat": 35.210131, "lon": -80.823197, "dup_group": 82, "emergency_tag": true, "non_acute_name": false, "non_acute_tag": false, "tags": { "addr:city": "Charlotte", "addr:housenumber": "1901", "addr:postcode": "28207", "addr:state": "NC", "addr:street": "Randolph Road", "amenity": "hospital", "emergency": "no", "gnis:feature_id": "1984468", "healthcare": "hospital", "healthcare:speciality": "orthopaedics", "name": "Charlotte Orthopedic Hospital", "operator": "Novant Health", "operator:wikidata": "Q14956815", "phone": "+1 704 316 2000", "website": "https://www.novanthealth.org/charlotte-orthopedic-hospital.aspx", "wikidata": "Q7240796", "wikipedia": "en:Novant Health Charlotte Orthopedic Hospital" }, "notes": null }, "geometry": { "type": "Point", "coordinates": [ -80.823197, 35.210131 ] } },
{ "type": "Feature", "properties": { "approve": true, "bucket": "ER_Hospital_UC", "name": "Carolinas Medical Center-Mercy", "lat": 35.209668, "lon": -80.8211, "dup_group": 83, "emergency_tag": true, "non_acute_name": false, "non_acute_tag": false, "tags": { "addr:city": "Charlotte", "addr:housenumber": "2001", "addr:postcode": "28207", "addr:street": "Vail Avenue", "amenity": "hospital", "emergency": "yes", "gnis:feature_id": "1024140", "healthcare": "hospital", "name": "Carolinas Medical Center-Mercy", "opening_hours": "24/7", "phone": "+1 704 304 5000", "website": "http://www.carolinashealthcare.org/locations/carolinas-medical-center-mercy", "wikidata": "Q17514690", "wikipedia": "en:Atrium Health Mercy" }, "notes": null }, "geometry": { "type": "Point", "coordinates": [ -80.8211, 35.209668 ] } },
{ "type": "Feature", "properties": { "approve": true, "bucket": "ER_Hospital_UC", "name": "Novant Health Presbyterian Medical Center", "lat": 35.212407, "lon": -80.823912, "dup_group": 84, "emergency_tag": true, "non_acute_name": false, "non_acute_tag": false, "tags": { "addr:city": "Charlotte", "addr:housenumber": "200", "addr:postcode": "28204", "addr:street": "Hawthorne Lane", "amenity": "hospital", "beds": "567", "emergency": "yes", "healthcare": "hospital", "name": "Novant Health Presbyterian Medical Center", "opening_hours": "24/7", "operator": "Novant Health", "operator:type": "private", "operator:wikidata": "Q14956815", "operator:wikipedia": "en:Novant Health", "phone": "+1 704 384 4000", "website": "https://www.novanthealth.org/presbyterian-medical-center.aspx" }, "notes": null }, "geometry": { "type": "Point", "coordinates": [ -80.823912, 35.212407 ] } },
{ "type": "Feature", "properties": { "approve": true, "bucket": "ER_Hospital_UC", "name": "Atrium Health University City", "lat": 35.305764, "lon": -80.747188, "dup_group": 95, "emergency_tag": true, "non_acute_name": false, "non_acute_tag": false, "tags": { "addr:city": "Charlotte", "addr:housenumber": "8800", "addr:postcode": "28262", "addr:state": "NC", "addr:street": "North Tryon Street", "amenity": "hospital", "emergency": "yes", "gnis:feature_id": "1007305", "healthcare": "hospital", "name": "Atrium Health University City", "opening_hours": "24/7", "operator": "Atrium Health", "operator:type": "private", "operator:wikidata": "Q5044932", "phone": "+1 704 863 6000", "website": "https://www.carolinashealthcare.org/locations/Carolinas-HealthCare-System-University", "wikidata": "Q17986278", "wikipedia": "en:Atrium Health University City" }, "notes": null }, "geometry": { "type": "Point", "coordinates": [ -80.747188, 35.305764 ] } },
{ "type": "Feature", "properties": { "approve": true, "bucket": "ER_Hospital_UC", "name": "CaroMont Regional Medical Center", "lat": 35.298012, "lon": -81.010526, "dup_group": 97, "emergency_tag": true, "non_acute_name": false, "non_acute_tag": false, "tags": { "amenity": "hospital", "healthcare": "hospital", "name": "CaroMont Regional Medical Center" }, "notes": null }, "geometry": { "type": "Point", "coordinates": [ -81.010526, 35.298012 ] } },
{ "type": "Feature", "properties": { "approve": true, "bucket": "ER_Hospital_UC", "name": "Woodridge Drive", "lat": 35.065149, "lon": -80.920219, "dup_group": 105, "emergency_tag": true, "non_acute_name": false, "non_acute_tag": false, "tags": { "access": "no", "emergency": "yes", "highway": "service", "name": "Woodridge Drive", "service": "emergency_access", "tiger:cfcc": "A41", "tiger:county": "York, SC", "tiger:name_base": "Woodridge", "tiger:name_type": "Dr", "tiger:reviewed": "no", "tiger:zip_left": "29715", "tiger:zip_left_1": "29715", "tiger:zip_right": "29715" }, "notes": null }, "geometry": { "type": "Point", "coordinates": [ -80.920219, 35.065149 ] } },
{ "type": "Feature", "properties": { "approve": true, "bucket": "ER_Hospital_UC", "name": "(unnamed)", "lat": 35.166553, "lon": -80.710644, "dup_group": 107, "emergency_tag": true, "non_acute_name": false, "non_acute_tag": false, "tags": { "emergency": "yes", "highway": "service", "service": "parking_aisle" }, "notes": null }, "geometry": { "type": "Point", "coordinates": [ -80.710644, 35.166553 ] } },
{ "type": "Feature", "properties": { "approve": true, "bucket": "ER_Hospital_UC", "name": "Atrium Health Primary Care", "lat": 35.169467, "lon": -80.662522, "dup_group": 108, "emergency_tag": true, "non_acute_name": false, "non_acute_tag": false, "tags": { "addr:city": "Mint Hill", "addr:housenumber": "11304", "addr:postcode": "28227", "addr:state": "NC", "addr:street": "Hawthorne Drive", "amenity": "hospital", "building": "yes", "building:levels": "1", "healthcare": "hospital", "healthcare:speciality": "general", "height": "5", "name": "Atrium Health Primary Care", "opening_hours": "Mo-Tu, Th 07:00-19:00; We, Fr 07:00-17:00; Sa, Su off", "operator": "Atrium Health", "operator:type": "private", "operator:wikidata": "Q5044932", "phone": "+17045456400", "website": "https://atriumhealth.org/locations/detail/atrium-health-primary-care-mint-hill-commons-family-medicine" }, "notes": null }, "geometry": { "type": "Point", "coordinates": [ -80.662522, 35.169467 ] } },
{ "type": "Feature", "properties": { "approve": true, "bucket": "ER_Hospital_UC", "name": "Vinca Circle", "lat": 35.301404, "lon": -80.726588, "dup_group": 110, "emergency_tag": true, "non_acute_name": false, "non_acute_tag": false, "tags": { "access": "no", "emergency": "yes", "highway": "service", "lanes": "2", "lanes:backward": "1", "lanes:forward": "1", "name": "Vinca Circle", "name_1": "Vinca Crescent", "service": "emergency_access", "tiger:cfcc": "A41", "tiger:county": "Mecklenburg, NC", "tiger:name_base": "Vinca", "tiger:name_base_1": "Vinca", "tiger:name_type": "Cir", "tiger:name_type_1": "Cres", "tiger:reviewed": "no" }, "notes": null }, "geometry": { "type": "Point", "coordinates": [ -80.726588, 35.301404 ] } },
{ "type": "Feature", "properties": { "approve": true, "bucket": "ER_Hospital_UC", "name": "Vinca Circle", "lat": 35.29987, "lon": -80.724807, "dup_group": 111, "emergency_tag": true, "non_acute_name": false, "non_acute_tag": false, "tags": { "access": "no", "emergency": "yes", "highway": "service", "lanes": "2", "lanes:backward": "1", "lanes:forward": "1", "name": "Vinca Circle", "service": "emergency_access", "tiger:cfcc": "A41", "tiger:county": "Mecklenburg, NC", "tiger:name_base": "Vinca", "tiger:name_type": "Cir", "tiger:reviewed": "no", "tiger:zip_left": "28213", "tiger:zip_right": "28213" }, "notes": null }, "geometry": { "type": "Point", "coordinates": [ -80.724807, 35.29987 ] } },
{ "type": "Feature", "properties": { "approve": true, "bucket": "ER_Hospital_UC", "name": "Novant Health", "lat": 35.211996, "lon": -80.821329, "dup_group": 113, "emergency_tag": true, "non_acute_name": false, "non_acute_tag": false, "tags": { "amenity": "hospital", "building": "yes", "healthcare": "hospital", "operator": "Novant Health", "operator:wikidata": "Q14956815", "operator:wikipedia": "en:Novant Health" }, "notes": null }, "geometry": { "type": "Point", "coordinates": [ -80.821329, 35.211996 ] } },
{ "type": "Feature", "properties": { "approve": true, "bucket": "ER_Hospital_UC", "name": "Novant Health Huntersville Medical Center", "lat": 35.405749, "lon": -80.860092, "dup_group": 116, "emergency_tag": true, "non_acute_name": false, "non_acute_tag": false, "tags": { "addr:city": "Huntersville", "addr:housenumber": "10030", "addr:postcode": "28078", "addr:state": "NC", "addr:street": "Gilead Road", "amenity": "hospital", "emergency": "yes", "healthcare": "hospital", "healthcare:speciality": "general;emergency;surgery;cardiology", "name": "Novant Health Huntersville Medical Center", "operator": "Novant Health", "operator:type": "private_non_profit", "operator:wikidata": "Q14956815", "website": "https://www.novanthealth.org/" }, "notes": null }, "geometry": { "type": "Point", "coordinates": [ -80.860092, 35.405749 ] } },
{ "type": "Feature", "properties": { "approve": true, "bucket": "ER_Hospital_UC", "name": "Novant Health Imaging - Museum", "lat": 35.197658, "lon": -80.811414, "dup_group": 122, "emergency_tag": true, "non_acute_name": false, "non_acute_tag": false, "tags": { "addr:city": "Charlotte", "addr:housenumber": "2900", "addr:postcode": "28207", "addr:state": "NC", "addr:street": "Randolph Road", "amenity": "hospital", "building": "yes", "healthcare": "hospital", "layer": "1", "name": "Novant Health Imaging - Museum", "operator": "Novant Health", "operator:type": "private", "operator:wikidata": "Q14956815", "source": "microsoft/BuildingFootprints" }, "notes": null }, "geometry": { "type": "Point", "coordinates": [ -80.811414, 35.197658 ] } },
{ "type": "Feature", "properties": { "approve": true, "bucket": "ER_Hospital_UC", "name": "Atrium Health Urgent Care", "lat": 35.204946, "lon": -80.836426, "dup_group": 131, "emergency_tag": true, "non_acute_name": false, "non_acute_tag": false, "tags": { "addr:city": "Charlotte", "addr:housenumber": "1426", "addr:postcode": "28204", "addr:state": "NC", "addr:street": "East Morehead Street", "amenity": "hospital", "building": "yes", "healthcare": "hospital", "name": "Atrium Health Urgent Care", "operator": "Atrium Health", "operator:wikidata": "Q5044932", "website": "atriumhealth.org/locations/detail/atrium-health-urgent-care-morehead" }, "notes": null }, "geometry": { "type": "Point", "coordinates": [ -80.836426, 35.204946 ] } },
{ "type": "Feature", "properties": { "approve": true, "bucket": "ER_Hospital_UC", "name": "Atrium Health Levine Children's Pediatrics", "lat": 35.196305, "lon": -80.837454, "dup_group": 132, "emergency_tag": true, "non_acute_name": false, "non_acute_tag": false, "tags": { "amenity": "hospital", "building": "yes", "healthcare": "hospital", "healthcare:speciality": "paediatrics", "layer": "1", "name": "Atrium Health Levine Children's Pediatrics", "operator": "Atrium Health", "operator:wikidata": "Q5044932" }, "notes": null }, "geometry": { "type": "Point", "coordinates": [ -80.837454, 35.196305 ] } },
{ "type": "Feature", "properties": { "approve": true, "bucket": "ER_Hospital_UC", "name": "Mint Hill Medical Center", "lat": 35.223197, "lon": -80.648091, "dup_group": 139, "emergency_tag": true, "non_acute_name": false, "non_acute_tag": false, "tags": { "addr:city": "Charlotte", "addr:housenumber": "8201", "addr:postcode": "28215", "addr:state": "NC", "addr:street": "Healthcare Loop", "amenity": "hospital", "healthcare": "hospital", "name": "Mint Hill Medical Center", "operator": "Novant Health", "operator:wikidata": "Q14956815", "website": "https://www.novanthealth.org/mint-hill-medical-center.aspx" }, "notes": null }, "geometry": { "type": "Point", "coordinates": [ -80.648091, 35.223197 ] } },
{ "type": "Feature", "properties": { "approve": true, "bucket": "ER_Hospital_UC", "name": "Atrium Health", "lat": 35.210182, "lon": -80.838894, "dup_group": 142, "emergency_tag": true, "non_acute_name": false, "non_acute_tag": false, "tags": { "addr:city": "Charlotte", "addr:housenumber": "1225", "addr:postcode": "28204", "addr:state": "NC", "addr:street": "Harding Place", "amenity": "hospital", "healthcare": "hospital", "operator": "Atrium Health", "operator:type": "private_non_profit", "operator:wikidata": "Q5044932" }, "notes": null }, "geometry": { "type": "Point", "coordinates": [ -80.838894, 35.210182 ] } },
{ "type": "Feature", "properties": { "approve": true, "bucket": "ER_Hospital_UC", "name": "Pineville Medical Plaza I", "lat": 35.09079, "lon": -80.871254, "dup_group": 143, "emergency_tag": true, "non_acute_name": false, "non_acute_tag": false, "tags": { "addr:city": "Charlotte", "addr:housenumber": "10650", "addr:postcode": "28210", "addr:state": "NC", "addr:street": "Park Road", "amenity": "hospital", "building": "yes", "healthcare": "hospital", "name": "Pineville Medical Plaza I", "operator": "Atrium Health", "operator:wikidata": "Q5044932" }, "notes": null }, "geometry": { "type": "Point", "coordinates": [ -80.871254, 35.09079 ] } },
{ "type": "Feature", "properties": { "approve": true, "bucket": "ER_Hospital_UC", "name": "Pineville Medical Plaza II", "lat": 35.090096, "lon": -80.870995, "dup_group": 144, "emergency_tag": true, "non_acute_name": false, "non_acute_tag": false, "tags": { "addr:city": "Charlotte", "addr:housenumber": "10660", "addr:postcode": "28210", "addr:state": "NC", "addr:street": "Park Road", "amenity": "hospital", "building": "yes", "healthcare": "hospital", "name": "Pineville Medical Plaza II", "operator": "Atrium Health", "operator:wikidata": "Q5044932" }, "notes": null }, "geometry": { "type": "Point", "coordinates": [ -80.870995, 35.090096 ] } },
{ "type": "Feature", "properties": { "approve": true, "bucket": "ER_Hospital_UC", "name": "Atrium Health Steele Creek", "lat": 35.098976, "lon": -80.993165, "dup_group": 60, "emergency_tag": true, "non_acute_name": false, "non_acute_tag": false, "tags": { "addr:city": "Charlotte", "addr:housenumber": "13640", "addr:postcode": "28273", "addr:state": "NC", "addr:street": "Steelecroft Parkway", "amenity": "hospital", "emergency": "yes", "healthcare": "hospital", "healthcare:speciality": "emergency;paediatrics;gynaecology;radiology", "name": "Atrium Health Steele Creek", "operator": "Atrium Health", "operator:type": "private_non_profit", "operator:wikidata": "Q5044932" }, "notes": null }, "geometry": { "type": "Point", "coordinates": [ -80.993165, 35.098976 ] } },
{ "type": "Feature", "properties": { "approve": true, "bucket": "ER_Hospital_UC", "name": "Atrium Health Union West", "lat": 35.094017, "lon": -80.675876, "dup_group": 149, "emergency_tag": true, "non_acute_name": false, "non_acute_tag": false, "tags": { "addr:city": "Matthews", "addr:housenumber": "1000", "addr:postcode": "28104", "addr:state": "NC", "addr:street": "Healing Way", "amenity": "hospital", "emergency": "yes", "healthcare": "hospital", "healthcare:speciality": "general;emergency;dermatology;surgery", "name": "Atrium Health Union West", "operator": "Atrium Health", "operator:type": "private", "operator:wikidata": "Q5044932", "start_date": "2022", "website": "https://atriumhealth.org/locations/detail/atrium-health-union-west" }, "notes": null }, "geometry": { "type": "Point", "coordinates": [ -80.675876, 35.094017 ] } },
{ "type": "Feature", "properties": { "approve": true, "bucket": "ER_Hospital_UC", "name": "Atrium Health", "lat": 35.264278, "lon": -81.030038, "dup_group": 150, "emergency_tag": true, "non_acute_name": false, "non_acute_tag": false, "tags": { "amenity": "hospital", "emergency": "no", "healthcare": "hospital", "operator": "Atrium Health", "operator:type": "private_non_profit", "operator:wikidata": "Q5044932" }, "notes": null }, "geometry": { "type": "Point", "coordinates": [ -81.030038, 35.264278 ] } },
{ "type": "Feature", "properties": { "approve": true, "bucket": "ER_Hospital_UC", "name": "Atrium Health", "lat": 35.442997, "lon": -80.885013, "dup_group": 151, "emergency_tag": true, "non_acute_name": false, "non_acute_tag": false, "tags": { "amenity": "hospital", "building": "yes", "healthcare": "hospital", "name": "Atrium Health", "operator": "Atrium Health", "operator:wikidata": "Q5044932" }, "notes": null }, "geometry": { "type": "Point", "coordinates": [ -80.885013, 35.442997 ] } },
{ "type": "Feature", "properties": { "approve": true, "bucket": "ER_Hospital_UC", "name": "CaroMont Regional Medical Center-Belmont", "lat": 35.258328, "lon": -81.032691, "dup_group": 152, "emergency_tag": true, "non_acute_name": false, "non_acute_tag": false, "tags": { "amenity": "hospital", "healthcare": "hospital", "name": "CaroMont Regional Medical Center-Belmont", "opening_date": "2023" }, "notes": null }, "geometry": { "type": "Point", "coordinates": [ -81.032691, 35.258328 ] } },
{ "type": "Feature", "properties": { "approve": true, "bucket": "ER_Hospital_UC", "name": "Piedmont Medical Center – Fort Mill", "lat": 35.022767, "lon": -80.957356, "dup_group": 154, "emergency_tag": true, "non_acute_name": false, "non_acute_tag": false, "tags": { "addr:city": "Fort Mill", "addr:housenumber": "1000", "addr:postcode": "29715", "addr:state": "SC", "addr:street": "Wellness Way", "amenity": "hospital", "emergency": "yes", "healthcare": "hospital", "healthcare:speciality": "surgery;general", "name": "Piedmont Medical Center – Fort Mill", "operator": "Tenet Healthcare Corporation", "operator:type": "public", "phone": "+1-803-802-3662" }, "notes": null }, "geometry": { "type": "Point", "coordinates": [ -80.957356, 35.022767 ] } },
{ "type": "Feature", "properties": { "approve": true, "bucket": "ER_Hospital_UC", "name": "Novant Health", "lat": 35.039327, "lon": -80.843323, "dup_group": 155, "emergency_tag": true, "non_acute_name": false, "non_acute_tag": false, "tags": { "amenity": "hospital", "healthcare": "hospital", "operator": "Novant Health", "operator:type": "private_non_profit", "operator:wikidata": "Q14956815" }, "notes": null }, "geometry": { "type": "Point", "coordinates": [ -80.843323, 35.039327 ] } },
{ "type": "Feature", "properties": { "approve": true, "bucket": "ER_Hospital_UC", "name": "Hemby Children's Hospital", "lat": 35.212054, "lon": -80.824562, "dup_group": 163, "emergency_tag": true, "non_acute_name": false, "non_acute_tag": false, "tags": { "addr:city": "Charlotte", "addr:country": "US", "addr:housenumber": "200", "addr:postcode": "28204", "addr:state": "NC", "addr:street": "Hawthorne Lane", "building": "hospital", "emergency": "yes", "healthcare:speciality": "paediatrics", "height": "25", "layer": "1", "name": "Hemby Children's Hospital", "opening_hours": "24/7", "phone": "+1 704 384 4021", "type": "multipolygon", "website": "https://www.novanthealth.org/hemby-childrens-hospital.aspx" }, "notes": null }, "geometry": { "type": "Point", "coordinates": [ -80.824562, 35.212054 ] } }
]
}
